QIANFAN-49              
1 62250U 24232P   26009.31814501  .00000040  00000+0  42862-4 0  9997
2 62250  89.0004  38.4515 0016048 113.0366 247.2480 13.50983178 71564
QIANFAN-50              
1 62251U 24232Q   26009.34286549  .00000034  00000+0  33048-4 0  9995
2 62251  89.0009  38.4586 0017685 114.4032 245.8967 13.50980003 71592
QIANFAN-51              
1 62252U 24232R   26009.32638824  .00000041  00000+0  45184-4 0  9993
2 62252  89.0003  38.4524 0015137 117.3120 242.9574 13.50982630 71588
QIANFAN-52              
1 62253U 24232S   26009.28117117  .00000034  00000+0  33929-4 0  9992
2 62253  88.9999  38.3295 0017225 110.8698 249.4300 13.50980683 71667
QIANFAN-53              
1 62254U 24232T   26009.26053273  .00000037  00000+0  39090-4 0  9991
2 62254  89.0007  38.4382 0016094 111.7506 248.5360 13.50983231 71623
QIANFAN-54              
1 62255U 24232U   26009.30166135  .00000037  00000+0  38330-4 0  9995
2 62255  88.9998  38.1100 0003503 126.3002 233.8473 13.50983640103138
QIANFAN-55              
1 62785U 25016A   26009.25356842  .00000193  00000+0  28022-3 0  9993
2 62785  88.9775 100.3726 0015593 266.5317  93.4051 13.50985478 50902
QIANFAN-56              
1 62786U 25016B   26009.27003663  .00000180  00000+0  26043-3 0  9993
2 62786  88.9749 100.1999 0014215 268.8922  91.0601 13.50987977 50957
